MESON-1                 
1 59131U 24043AK  26068.90019075  .00008544  00000+0  29748-3 0  9998
2 59131  97.5469 205.2839 0009545 227.1432 132.9007 15.29893494111890
STARLINK-33710          
1 63434U 25069B   26068.44239611  .00018471  00000+0  63433-3 0  9996
2 63434  53.1581 143.8621 0001158  74.9233 285.1896 15.30193173 53362
